#dP2020  7 10  0  0  0.00000000      96 __u+U ITR00 FIT  IAC
## 2113 432000.00000000   900.00000000 59040 0.0000000000000
+  112   C01C03C04C05C06C07C08C09C10C11C12C13C14C16C19C20C21
+        C22C23C24C25C26C27C28C29C30C32C33C34C35C36C37E01E02
+        E03E04E05E07E08E09E11E12E13E14E15E18E19E21E24E25E26
+        E27E30E31E33E36G01G02G03G04G05G06G07G08G09G10G11G12
+        G13G14G15G16G17G18G19G20G21G22G24G25G26G27G28G30G31
+        G32J01J02J03J07R01R02R03R04R05R07R08R09R11R12R13R14
+        R15R16R17R18R19R20R21R23R24R26  0  0  0  0  0  0  0
++        13 13 16 13  8  8  8  8  8  8  8  8  8  8  7  7  8
++         7  8  8  8  7  8  8  8  8  8  8  8  8  8  8  4  5
++         4  4  4  5  4  5  4  4  4  4  5  4  4  5  4  4  5
++         5  5  4  6  5  3  3  4  3  3  3  3  3  3  3  4  4
++         3  4  3  4  4  3  4  3  3  3  3  3  3  3  3  3  3
++         3  8  8  8 15  6  5  5  6  6  6  5  5  5  5  6  6
++         6  6  5  5  6  6  5  6  6  8  0  0  0  0  0  0  0
%c M  cc GPS ccc cccc cccc cccc cccc ccccc ccccc ccccc ccccc
%c cc cc ccc ccc cccc cccc cccc cccc ccccc ccccc ccccc ccccc
%f  0.0000000  0.000000000  0.00000000000  0.000000000000000
%f  0.0000000  0.000000000  0.00000000000  0.000000000000000
%i    0    0    0    0      0      0      0      0         0
%i    0    0    0    0      0      0      0      0         0
/* INFORMATION & ANALYSIS CENTER (IAC)            RAPID DATA
/* S/V CLOCKS ARE ALIGNED TO GNSS TIME                      
/* G:C1WC2W R:C1PC2P E:C1XC5X C:C2IC6I J:C1CC2S             
/* PCV:IGS14_2108 OL/AL:FES2004  NONE     YN ORB:CoN CLK:CoN
*  2020 07 10 13  0  0.00000000
PC01 -34336.801089  24446.229481   -349.302002   -339.578550
PC03 -14798.386003  39517.175742    206.486503    832.291108
PC04 -39641.484432  14393.962356   -522.260633   -114.588415
PC05  21930.110056  36014.486260   1031.337408   -606.398909
PC06  -6402.052682  30305.208022  29211.792216    776.955612
PC07 -20632.306470  24242.626519 -27685.874949    -23.011679
PC08 -18999.138734  37440.908879    802.688794   -365.661799
PC09   5356.250530  37729.189088  18727.591010    666.880030
PC10  -5324.569273  26372.947351 -32320.099419   -240.408641
PC11  -3435.061612 -26859.495276   6911.515684   -481.940833
PC12   9102.209840 -16396.438573  20700.832322    427.281169
PC13  -8640.877324  38512.877860  14554.035106    535.472007
PC14  -2177.411142 -16435.450429 -22425.107747    648.408096
PC16  -3600.058667  31442.002554  28039.930178   -602.138344
PC19  12728.960935  16048.593580  18969.812875    470.623503
PC20  -7748.907383  14432.225066  22615.323514   -840.952640
PC21  24381.343945  -4096.945531 -12897.418417   -638.875075
PC22  26259.084362   8413.430405   4178.552201   -773.899865
PC23 -17492.484961  -3531.354124  21466.824429   -845.179558
PC24  14149.811325 -22974.201031   7154.046701   -769.005687
PC25  -3242.637479 -18552.028784  20596.908437   -681.155959
PC26  21748.101395 -14728.339018  -9469.790369    749.461933
PC27 -14471.131941   6789.289433 -22895.661375    361.930032
PC28 -16848.300538 -13815.286908 -17443.009543   -199.555682
PC29  10348.756029  25851.991676   1816.114333    254.025657
PC30  -3009.061570  23258.929614 -15144.229574    344.379060
PC32 -24364.086977   4314.060000  12935.782821   -876.018026
PC33 -12793.125270 -16003.029572 -18948.143521   -800.898768
PC34   2745.694941 -23517.233906  14742.777206   -890.465675
PC35  17330.713828  13432.460937  17273.228523   -756.853452
PC36   2570.864071  18752.867797 -20478.203750   -865.413104
PC37 -22145.502421  13662.987112  10097.088454   -866.632079
PE01  -1932.528394  17813.167963 -23558.515692   -895.355393
PE02   1821.580347 -17789.943714  23590.080056    146.322408
PE03  -8600.917693 -22231.812978 -17553.969419   -319.060966
PE04  23117.483149  18461.486654    912.910260   -562.970714
PE05  11170.771325 -13003.794038 -24123.191295   -364.450287
PE07 -24260.782306  -3735.251463  16563.772127   -407.033275
PE08 -23355.571413 -18186.942114   -672.278914   6151.683255
PE09  24166.761815   3568.033169 -16693.171869   6001.223157
PE11  16536.610839  -4578.833929  24104.562919   4010.401424
PE12  11562.438144  17791.209105  20640.697684   5713.369797
PE13 -16450.107281   4390.035251 -24215.342416    402.214826
PE14  10483.400380  24843.634895  -6535.060313  -1079.297014
PE15 -11675.190415 -17521.096341 -20803.762875    860.504409
PE18 -21267.884122 -19053.926120  -8834.597439  -1181.967547
PE19   6587.432894  21743.458817  18983.308175     24.200616
PE21 -20865.384178  17314.159742 -11882.881949   -609.307837
PE24  28015.742610  -6281.086579  -7236.511588   5358.292241
PE25  20954.129751 -17274.829076  11777.167915   -513.408816
PE26 -11588.143788  23956.384216 -12959.944967   2976.123363
PE27 -27992.624180   6656.743641   6957.998875    180.487424
PE30 -18265.079197  -8270.090209  21768.089238   3758.625573
PE31  18640.785606   7845.498985 -21601.166317   -473.174617
PE33     37.162071  29148.816330   5167.721086   -465.095069
PE36  11565.047855 -23718.600997  13405.693085    535.956391
PG01  14520.492142 -20266.199064   8423.398866     23.779510
PG02 -15566.465590    545.155137 -20871.951616   -485.124289
PG03  19094.985068 -12254.575449 -13793.744797   -235.401464
PG04   7450.410545 -14609.218929 -20873.813480   -113.001393
PG05 -26256.041541   1143.282114  -4663.135652    -16.364365
PG06  -9783.147068 -13103.082360 -20868.395054   -301.109092
PG07   3871.681630 -24728.212201   8417.015734   -324.006811
PG08  15647.203074  -3745.238304  21188.310896    -40.482140
PG09  -3644.995084 -21606.813711 -15048.360057   -251.187062
PG10  12276.979897  12358.199543  20206.204359   -395.632871
PG11  12925.126840 -13940.664387  18181.796908   -225.092633
PG12 -19888.924943  10803.775986 -14007.582273     95.539410
PG13 -18117.834759  -5562.955818  18530.504410     25.520077
PG14  18048.358983  18004.457611  -7430.800737      0.304012
PG15 -15452.766000   6067.286077  20474.973100   -218.504342
PG16  26750.374442     -0.642990  -1936.843048   -180.954942
PG17 -14496.503460 -22274.148376   1082.108882    293.779008
PG18  -4577.679305  24821.115355   8211.578705    242.678697
PG19 -17572.158947 -18570.701556  -7578.632402   -133.915803
PG20   -196.577698  16141.582963  20985.321046    527.330138
PG21   8850.828363  16955.405080  19320.158786     21.981302
PG22  23669.670306 -10074.352374  -6095.339466   -772.971892
PG24 -14610.788703  19175.279343  10522.433008    -15.457182
PG25  -9651.779607  15122.510846 -19738.170260     21.771735
PG26  21857.056899   6348.891015 -13906.059932    240.810992
PG27  19735.747149   7644.510293  16107.152420   -342.267700
PG28 -12459.389594 -12987.939456  20063.821413    700.911230
PG30  -4225.795203 -20300.380459  16521.477867   -259.151921
PG31  11301.559054  11346.147747 -21158.388480    -54.666152
PG32  16498.853857  20920.144289     41.459737    314.664307
PJ01 -28737.799178  21882.460018  26854.298616   -266.738265
PJ02 -36197.177164  21133.887912   -391.562665     -1.154932
PJ03 -18044.872826  26257.617420 -23082.978275     -5.124362
PJ07 -25413.031494  33650.819956     33.412733      0.007273
PR01 -23840.523982  -5690.206542   7101.734874     64.336863
PR02 -11036.887657   6660.540911  22043.899563    435.606935
PR03   7007.449724  13497.800452  20537.256162     18.288761
PR04  20946.995323  12499.833513   7492.670104     55.776657
PR05  23081.595833   4643.703178  -9826.830270     53.837919
PR07  -7559.207220 -13556.951636 -20189.834044    -38.333567
PR08 -20959.168039 -12505.640022  -7336.076958    -53.377059
PR09  15998.109228 -17821.755918   8692.393563    142.645392
PR11 -11460.592601  -4810.995179  22300.410285    -30.037620
PR12 -20524.084229   8181.762790  12763.489644    145.982865
PR13 -18281.059408  17187.241742  -4626.554591    -41.034979
PR14  -5324.941442  15793.749345 -19302.130374     53.189571
PR15  10576.464543   5409.380348 -22548.573218    106.929262
PR16  20617.969335  -9031.788165 -12131.754500     -4.586598
PR17   2197.281346  25297.151638  -2199.312886    340.062399
PR18   8807.340982  19332.199035  14166.312233     41.780265
PR19  10623.470650   3759.732208  22875.957207   -101.726712
PR20   6472.100295 -16729.611232  18116.296529   -416.380597
PR21  -2613.441037 -25361.179113   1192.169769   -137.136394
PR23  -9939.057981   4206.850947 -23126.859832    317.729848
PR24  -6411.183184  17441.431145 -17457.878795      5.767744
PR26   7918.561695 -12419.452494  20839.663583   -365.140701
EOF
